ONEWEB-0504             
1 54122U 22138K   26059.25535230  .00000004  00000+0 -21925-4 0  9994
2 54122  87.9242 326.6607 0001484  83.1702 276.9600 13.19725867162464
ONEWEB-0505             
1 54123U 22138L   26059.25218856  .00000035  00000+0  55621-4 0  9990
2 54123  87.9252 326.6567 0001420  94.1894 265.9401 13.19724735162443
ONEWEB-0506             
1 54124U 22138M   26059.22692154  .00000080  00000+0  16629-3 0  9999
2 54124  87.9250 326.6591 0001525  88.1359 271.9948 13.19726515162434
ONEWEB-0507             
1 54125U 22138N   26059.24744800  .00000082  00000+0  17222-3 0  9990
2 54125  87.9234 326.6784 0001742  84.0651 276.0680 13.19725791162481
ONEWEB-0508             
1 54126U 22138P   26059.24427618 -.00000251  00000+0 -65916-3 0  9999
2 54126  87.9241 326.6769 0001746  95.5817 264.5515 13.19724746162464
ONEWEB-0509             
1 54127U 22138Q   26059.21900635 -.00000028  00000+0 -10100-3 0  9999
2 54127  87.9250 326.6610 0001699  83.1272 277.0054 13.19724933162437
ONEWEB-0510             
1 54128U 22138R   26059.19322087  .00000901  00000+0  21830-2 0  9995
2 54128  87.9189 296.1965 0001995  70.0956 290.0393 13.20776801164892
ONEWEB-0511             
1 54129U 22138S   26059.21585800  .00000135  00000+0  30412-3 0  9999
2 54129  87.9252 326.6658 0001516  72.8854 287.2445 13.19726305162467
ONEWEB-0512             
1 54130U 22138T   26059.20795152  .00000041  00000+0  69307-4 0  9995
2 54130  87.9241 326.6821 0001395  87.9465 272.1827 13.19727917162433
ONEWEB-0513             
1 54131U 22138U   26059.18232564  .00000027  00000+0  34218-4 0  9993
2 54131  87.9250 326.6431 0000807  99.9393 260.1831 13.20262214162338
ONEWEB-0514             
1 54132U 22138V   26059.22375484  .00000139  00000+0  31594-3 0  9995
2 54132  87.9243 326.6678 0001759  75.2019 284.9309 13.19726861162451
ONEWEB-0515             
1 54133U 22138W   26059.18059429 -.00000014  00000+0 -66165-4 0  9996
2 54133  87.9187 296.1879 0002530  79.0065 281.1353 13.20772715164916
ONEWEB-0516             
1 54134U 22138X   26059.19848467 -.00000006  00000+0 -48156-4 0  9997
2 54134  87.9238 326.6855 0001805  83.7672 276.3667 13.19725742162454
ONEWEB-0517             
1 54135U 22138Y   26059.25376696  .00000042  00000+0  72883-4 0  9997
2 54135  87.9244 326.6626 0001537  70.4111 289.7188 13.19726155162467
ONEWEB-0518             
1 54136U 22138Z   26059.19689006 -.00000025  00000+0 -95118-4 0  9992
2 54136  87.9236 326.6873 0001668  85.3408 274.7915 13.19727308162454
ONEWEB-0519             
1 54137U 22138AA  26059.22218103  .00000095  00000+0  20496-3 0  9994
2 54137  87.9248 326.6608 0001559  73.6955 286.4349 13.19725841162462
ONEWEB-0520             
1 54138U 22138AB  26059.18111043 -.00000003  00000+0 -40314-4 0  9998
2 54138  87.9243 326.6754 0001634  88.3047 271.8273 13.19725415162448
