[{"OBJECT_NAME":"ONEWEB-0504","OBJECT_ID":"2022-138K","EPOCH":"2026-02-28T06:07:42.438720","MEAN_MOTION":13.19725867,"ECCENTRICITY":0.00014843,"INCLINATION":87.9242,"RA_OF_ASC_NODE":326.6607,"ARG_OF_PERICENTER":83.1702,"MEAN_ANOMALY":276.96,"EPHEMERIS_TYPE":0,"CLASSIFICATION_TYPE":"U","NORAD_CAT_ID":54122,"ELEMENT_SET_NO":999,"REV_AT_EPOCH":16246,"BSTAR":-2.1925127e-5,"MEAN_MOTION_DOT":4.0e-8,"MEAN_MOTION_DDOT":0},{"OBJECT_NAME":"ONEWEB-0505","OBJECT_ID":"2022-138L","EPOCH":"2026-02-28T06:03:09.091584","MEAN_MOTION":13.19724735,"ECCENTRICITY":0.00014203,"INCLINATION":87.9252,"RA_OF_ASC_NODE":326.6567,"ARG_OF_PERICENTER":94.1894,"MEAN_ANOMALY":265.9401,"EPHEMERIS_TYPE":0,"CLASSIFICATION_TYPE":"U","NORAD_CAT_ID":54123,"ELEMENT_SET_NO":999,"REV_AT_EPOCH":16244,"BSTAR":5.5620726e-5,"MEAN_MOTION_DOT":3.5e-7,"MEAN_MOTION_DDOT":0},{"OBJECT_NAME":"ONEWEB-0506","OBJECT_ID":"2022-138M","EPOCH":"2026-02-28T05:26:46.021056","MEAN_MOTION":13.19726515,"ECCENTRICITY":0.00015251,"INCLINATION":87.925,"RA_OF_ASC_NODE":326.6591,"ARG_OF_PERICENTER":88.1359,"MEAN_ANOMALY":271.9948,"EPHEMERIS_TYPE":0,"CLASSIFICATION_TYPE":"U","NORAD_CAT_ID":54124,"ELEMENT_SET_NO":999,"REV_AT_EPOCH":16243,"BSTAR":0.00016629488,"MEAN_MOTION_DOT":8.0e-7,"MEAN_MOTION_DDOT":0},{"OBJECT_NAME":"ONEWEB-0507","OBJECT_ID":"2022-138N","EPOCH":"2026-02-28T05:56:19.507200","MEAN_MOTION":13.19725791,"ECCENTRICITY":0.00017428,"INCLINATION":87.9234,"RA_OF_ASC_NODE":326.6784,"ARG_OF_PERICENTER":84.0651,"MEAN_ANOMALY":276.068,"EPHEMERIS_TYPE":0,"CLASSIFICATION_TYPE":"U","NORAD_CAT_ID":54125,"ELEMENT_SET_NO":999,"REV_AT_EPOCH":16248,"BSTAR":0.00017221579,"MEAN_MOTION_DOT":8.2e-7,"MEAN_MOTION_DDOT":0},{"OBJECT_NAME":"ONEWEB-0508","OBJECT_ID":"2022-138P","EPOCH":"2026-02-28T05:51:45.461952","MEAN_MOTION":13.19724746,"ECCENTRICITY":0.00017466,"INCLINATION":87.9241,"RA_OF_ASC_NODE":326.6769,"ARG_OF_PERICENTER":95.5817,"MEAN_ANOMALY":264.5515,"EPHEMERIS_TYPE":0,"CLASSIFICATION_TYPE":"U","NORAD_CAT_ID":54126,"ELEMENT_SET_NO":999,"REV_AT_EPOCH":16246,"BSTAR":-0.0006591551,"MEAN_MOTION_DOT":-2.51e-6,"MEAN_MOTION_DDOT":0},{"OBJECT_NAME":"ONEWEB-0509","OBJECT_ID":"2022-138Q","EPOCH":"2026-02-28T05:15:22.148640","MEAN_MOTION":13.19724933,"ECCENTRICITY":0.00016991,"INCLINATION":87.925,"RA_OF_ASC_NODE":326.661,"ARG_OF_PERICENTER":83.1272,"MEAN_ANOMALY":277.0054,"EPHEMERIS_TYPE":0,"CLASSIFICATION_TYPE":"U","NORAD_CAT_ID":54127,"ELEMENT_SET_NO":999,"REV_AT_EPOCH":16243,"BSTAR":-0.00010100392,"MEAN_MOTION_DOT":-2.8e-7,"MEAN_MOTION_DDOT":0},{"OBJECT_NAME":"ONEWEB-0510","OBJECT_ID":"2022-138R","EPOCH":"2026-02-28T04:38:14.283168","MEAN_MOTION":13.20776801,"ECCENTRICITY":0.00019958,"INCLINATION":87.9189,"RA_OF_ASC_NODE":296.1965,"ARG_OF_PERICENTER":70.0956,"MEAN_ANOMALY":290.0393,"EPHEMERIS_TYPE":0,"CLASSIFICATION_TYPE":"U","NORAD_CAT_ID":54128,"ELEMENT_SET_NO":999,"REV_AT_EPOCH":16489,"BSTAR":0.0021830378,"MEAN_MOTION_DOT":9.01e-6,"MEAN_MOTION_DDOT":0},{"OBJECT_NAME":"ONEWEB-0511","OBJECT_ID":"2022-138S","EPOCH":"2026-02-28T05:10:50.131200","MEAN_MOTION":13.19726305,"ECCENTRICITY":0.00015164,"INCLINATION":87.9252,"RA_OF_ASC_NODE":326.6658,"ARG_OF_PERICENTER":72.8854,"MEAN_ANOMALY":287.2445,"EPHEMERIS_TYPE":0,"CLASSIFICATION_TYPE":"U","NORAD_CAT_ID":54129,"ELEMENT_SET_NO":999,"REV_AT_EPOCH":16246,"BSTAR":0.0003041205,"MEAN_MOTION_DOT":1.35e-6,"MEAN_MOTION_DDOT":0},{"OBJECT_NAME":"ONEWEB-0512","OBJECT_ID":"2022-138T","EPOCH":"2026-02-28T04:59:27.011328","MEAN_MOTION":13.19727917,"ECCENTRICITY":0.00013952,"INCLINATION":87.9241,"RA_OF_ASC_NODE":326.6821,"ARG_OF_PERICENTER":87.9465,"MEAN_ANOMALY":272.1827,"EPHEMERIS_TYPE":0,"CLASSIFICATION_TYPE":"U","NORAD_CAT_ID":54130,"ELEMENT_SET_NO":999,"REV_AT_EPOCH":16243,"BSTAR":6.9307084e-5,"MEAN_MOTION_DOT":4.1e-7,"MEAN_MOTION_DDOT":0},{"OBJECT_NAME":"ONEWEB-0513","OBJECT_ID":"2022-138U","EPOCH":"2026-02-28T04:22:32.935296","MEAN_MOTION":13.20262214,"ECCENTRICITY":8.071e-5,"INCLINATION":87.925,"RA_OF_ASC_NODE":326.6431,"ARG_OF_PERICENTER":99.9393,"MEAN_ANOMALY":260.1831,"EPHEMERIS_TYPE":0,"CLASSIFICATION_TYPE":"U","NORAD_CAT_ID":54131,"ELEMENT_SET_NO":999,"REV_AT_EPOCH":16233,"BSTAR":3.4217685e-5,"MEAN_MOTION_DOT":2.7e-7,"MEAN_MOTION_DDOT":0},{"OBJECT_NAME":"ONEWEB-0514","OBJECT_ID":"2022-138V","EPOCH":"2026-02-28T05:22:12.418176","MEAN_MOTION":13.19726861,"ECCENTRICITY":0.00017598,"INCLINATION":87.9243,"RA_OF_ASC_NODE":326.6678,"ARG_OF_PERICENTER":75.2019,"MEAN_ANOMALY":284.9309,"EPHEMERIS_TYPE":0,"CLASSIFICATION_TYPE":"U","NORAD_CAT_ID":54132,"ELEMENT_SET_NO":999,"REV_AT_EPOCH":16245,"BSTAR":0.00031593933,"MEAN_MOTION_DOT":1.39e-6,"MEAN_MOTION_DDOT":0},{"OBJECT_NAME":"ONEWEB-0515","OBJECT_ID":"2022-138W","EPOCH":"2026-02-28T04:20:03.346656","MEAN_MOTION":13.20772715,"ECCENTRICITY":0.00025308,"INCLINATION":87.9187,"RA_OF_ASC_NODE":296.1879,"ARG_OF_PERICENTER":79.0065,"MEAN_ANOMALY":281.1353,"EPHEMERIS_TYPE":0,"CLASSIFICATION_TYPE":"U","NORAD_CAT_ID":54133,"ELEMENT_SET_NO":999,"REV_AT_EPOCH":16491,"BSTAR":-6.6164867e-5,"MEAN_MOTION_DOT":-1.4e-7,"MEAN_MOTION_DDOT":0},{"OBJECT_NAME":"ONEWEB-0516","OBJECT_ID":"2022-138X","EPOCH":"2026-02-28T04:45:49.075488","MEAN_MOTION":13.19725742,"ECCENTRICITY":0.00018058,"INCLINATION":87.9238,"RA_OF_ASC_NODE":326.6855,"ARG_OF_PERICENTER":83.7672,"MEAN_ANOMALY":276.3667,"EPHEMERIS_TYPE":0,"CLASSIFICATION_TYPE":"U","NORAD_CAT_ID":54134,"ELEMENT_SET_NO":999,"REV_AT_EPOCH":16245,"BSTAR":-4.8155706e-5,"MEAN_MOTION_DOT":-6.0e-8,"MEAN_MOTION_DDOT":0},{"OBJECT_NAME":"ONEWEB-0517","OBJECT_ID":"2022-138Y","EPOCH":"2026-02-28T06:05:25.465344","MEAN_MOTION":13.19726155,"ECCENTRICITY":0.00015374,"INCLINATION":87.9244,"RA_OF_ASC_NODE":326.6626,"ARG_OF_PERICENTER":70.4111,"MEAN_ANOMALY":289.7188,"EPHEMERIS_TYPE":0,"CLASSIFICATION_TYPE":"U","NORAD_CAT_ID":54135,"ELEMENT_SET_NO":999,"REV_AT_EPOCH":16246,"BSTAR":7.2882502e-5,"MEAN_MOTION_DOT":4.2e-7,"MEAN_MOTION_DDOT":0},{"OBJECT_NAME":"ONEWEB-0518","OBJECT_ID":"2022-138Z","EPOCH":"2026-02-28T04:43:31.301184","MEAN_MOTION":13.19727308,"ECCENTRICITY":0.00016684,"INCLINATION":87.9236,"RA_OF_ASC_NODE":326.6873,"ARG_OF_PERICENTER":85.3408,"MEAN_ANOMALY":274.7915,"EPHEMERIS_TYPE":0,"CLASSIFICATION_TYPE":"U","NORAD_CAT_ID":54136,"ELEMENT_SET_NO":999,"REV_AT_EPOCH":16245,"BSTAR":-9.5118021e-5,"MEAN_MOTION_DOT":-2.5e-7,"MEAN_MOTION_DDOT":0},{"OBJECT_NAME":"ONEWEB-0519","OBJECT_ID":"2022-138AA","EPOCH":"2026-02-28T05:19:56.440992","MEAN_MOTION":13.19725841,"ECCENTRICITY":0.00015598,"INCLINATION":87.9248,"RA_OF_ASC_NODE":326.6608,"ARG_OF_PERICENTER":73.6955,"MEAN_ANOMALY":286.4349,"EPHEMERIS_TYPE":0,"CLASSIFICATION_TYPE":"U","NORAD_CAT_ID":54137,"ELEMENT_SET_NO":999,"REV_AT_EPOCH":16246,"BSTAR":0.00020496188,"MEAN_MOTION_DOT":9.5e-7,"MEAN_MOTION_DDOT":0},{"OBJECT_NAME":"ONEWEB-0520","OBJECT_ID":"2022-138AB","EPOCH":"2026-02-28T04:20:47.941152","MEAN_MOTION":13.19725415,"ECCENTRICITY":0.00016341,"INCLINATION":87.9243,"RA_OF_ASC_NODE":326.6754,"ARG_OF_PERICENTER":88.3047,"MEAN_ANOMALY":271.8273,"EPHEMERIS_TYPE":0,"CLASSIFICATION_TYPE":"U","NORAD_CAT_ID":54138,"ELEMENT_SET_NO":999,"REV_AT_EPOCH":16244,"BSTAR":-4.0314275e-5,"MEAN_MOTION_DOT":-3.0e-8,"MEAN_MOTION_DDOT":0}]
